OPTICUBE 04             
1 41851U 16067D   24355.44546880  .00005830  00000+0  41035-3 0  9998
2 41851  98.0847 168.7205 0017587 149.2068 211.0193 15.05347954443230
AEROCUBE 8D             
1 41852U 16067E   24355.40005870  .00012431  00000+0  70354-3 0  9995
2 41852  98.1102 175.5754 0004104 190.9210 169.1931 15.13201117443506
AEROCUBE 8C             
1 41853U 16067F   24354.75386447  .00010008  00000+0  56671-3 0  9999
2 41853  98.0930 173.0283 0007586 126.1528 234.0405 15.13226688443390
PROMETHEUS 2-1          
1 41854U 16067G   24355.44881520  .00033637  00000+0  11367-2 0  9994
2 41854  98.0923 185.0911 0009234 130.2943 229.9104 15.30542375444082
PROMETHEUS 2-3          
1 41855U 16067H   24355.06057055  .00030818  00000+0  10460-2 0  9992
2 41855  98.0861 183.9769 0007711 141.7973 218.3814 15.30432904444020
CORVUS BC2              
1 42846U 17042X   24355.02064800  .00005549  00000+0  44194-3 0  9994
2 42846  97.3672 170.1754 0012171 147.2473 212.9508 15.00688580405282
CORVUS BC1              
1 42847U 17042Y   24354.76307909  .00005496  00000+0  43620-3 0  9999
2 42847  97.3675 170.3474 0011601 122.3891 237.8458 15.00831638405264
MIRATA                  
1 43015U 17073C   24355.13658518  .00047994  00000+0  15226-2 0  9997
2 43015  97.5656 239.3955 0128854 339.4659  20.1424 15.24741663384485
MAKERSAT 0              
1 43016U 17073D   24355.11777595  .00020834  00000+0  99247-3 0  9993
2 43016  97.5443 229.6270 0169677  11.4576 349.0438 15.07248842383822
SIRION PATHFINDER-2     
1 43759U 18099B   24354.64391090  .00007448  00000+0  50404-3 0  9993
2 43759  97.5038  45.7986 0010695  22.0522 338.1163 15.06751628330399
CORVUS BC4              
1 43767U 18099K   24354.72078177  .00005854  00000+0  40948-3 0  9990
2 43767  97.4869  42.4426 0011356  75.2212 285.0273 15.05603786330272
MOVE-II                 
1 43780U 18099Y   24355.11275314  .00051451  00000+0  15594-2 0  9993
2 43780  97.4941  58.1963 0004908  52.7224 307.4465 15.33957547331233
SPACEBEE-7              
1 43816U 18099BL  24355.14562211  .00024770  00000+0  10561-2 0  9994
2 43816  97.5229  57.6666 0007823   8.5069 351.6299 15.22899681330598
SPACEBEE-6              
1 43818U 18099BN  24355.45360181  .00394603  00000+0  28945-2 0  9992
2 43818  97.5049  69.4872 0006246 304.9108  55.1568 15.71971680331551
SHIELDS 1               
1 43850U 18104B   24355.40182404  .00028497  00000+0  54062-3 0  9995
2 43850  85.0196 155.8525 0010262  84.2961 275.9465 15.48108937334861
SONATE                  
1 44400U 19038Q   24355.01877937  .00045334  00000+0  77617-3 0  9993
2 44400  97.7126 359.5057 0012629 146.6243 213.5807 15.51023228302703
DUCHIFAT-3              
1 44854U 19089C   24355.32736076  .00034227  00000+0  11811-2 0  9996
2 44854  36.9513 349.3987 0012527 220.5338 139.4481 15.29020667276572
M2 PATHFINDER           
1 45727U 20037E   24355.23280373  .00005623  00000+0  45780-3 0  9996
2 45727  97.7768 171.1417 0011011 205.2531 154.8155 14.99877597243807
NETSAT-4                
1 46504U 20068U   24355.42436176  .00016373  00000+0  70288-3 0  9994
2 46504  97.8288 318.7775 0011355  78.8488 281.4023 15.22733051232432
NETSAT-3                
1 46505U 20068V   24355.41945549  .00014770  00000+0  64936-3 0  9995
2 46505  97.8276 318.0434 0010663  86.9266 273.3189 15.21951122232411
NETSAT-1                
1 46506U 20068W   24354.89309338  .00011205  00000+0  54078-3 0  9993
2 46506  97.8300 316.3546 0009575  97.9539 262.2781 15.18818585232258
NETSAT-2                
1 46507U 20068X   24355.44894085  .00016772  00000+0  72354-3 0  9995
2 46507  97.8279 318.3786 0008744  98.3154 261.9073 15.22585456232384
WILDTRACKCUBE-SIMBA     
1 47941U 21022K   24355.44253054  .00026877  00000+0  85648-3 0  9991
2 47941  97.4399 251.5956 0010638 197.2725 162.8156 15.32462790206873
GRBALPHA                
1 47959U 21022AD  24355.48033338  .00053320  00000+0  11639-2 0  9996
2 47959  97.4390 255.4775 0008526 171.7321 188.4069 15.44002042205955
BEESAT-8                
1 48085U 21022AP  24355.26836206  .00235584  00000+0  21514-2 0  9995
2 48085  97.4730 262.4270 0008855 118.8114 241.4036 15.67074592206598
LEDSAT                  
1 49069U 21073D   24355.16995732  .00039209  00000+0  10197-2 0  9994
2 49069  97.4146  66.4371 0014027 344.7266  15.3553 15.38718056184902
ROBUSTA-1F (MTCUBE 2)   
1 53109U 22080E   24354.76847958 -.00000003  00000+0  00000+0 0  9994
2 53109  70.1203 127.5927 0008347  47.7243 312.4123  6.42584132 57086
SITRO-AIS 5 (KATYS)     
1 57176U 23091L   24355.48749873  .00013271  00000+0  72180-3 0  9994
2 57176  97.5868  46.5341 0015299 198.2321 161.8364 15.14495130 81636
SITRO-AIS 6 (CHIRKIN)   
1 57192U 23091AC  24355.46795513  .00012857  00000+0  69926-3 0  9995
2 57192  97.5864  46.5452 0015156 197.6043 162.4666 15.14504795 81639
SITRO-AIS 8 (ANOKHIN)   
1 57193U 23091AD  24355.43726799  .00014704  00000+0  78126-3 0  9998
2 57193  97.5861  46.7273 0014808 198.9457 161.1226 15.15307886 81648
SITRO-AIS 7 (FARTUSHNIY)
1 57194U 23091AE  24355.48131646  .00012580  00000+0  68628-3 0  9991
2 57194  97.5865  46.5183 0015019 198.4334 161.6355 15.14404276 81632
SITRO-AIS 10 (BURDAEV)  
1 57199U 23091AK  24355.48236025  .00015959  00000+0  79122-3 0  9997
2 57199  97.5877  48.3034 0010655 182.1829 177.9360 15.17772127 81749
SITRO-AIS 9 (SHCHUKIN)  
1 57201U 23091AM  24355.48532567  .00015498  00000+0  77019-3 0  9992
2 57201  97.5872  48.2646 0010648 182.3255 177.7931 15.17697840 81743
SITRO-AIS 12 (SMIRENNIY)
1 57204U 23091AQ  24355.48978596  .00015160  00000+0  74939-3 0  9995
2 57204  97.5882  48.4776 0010704 176.4426 183.6885 15.17888109 81755
SITRO-AIS 11 (SHEFFER)  
1 57208U 23091AU  24355.46129518  .00014380  00000+0  70816-3 0  9992
2 57208  97.5876  48.4994 0010551 176.9080 183.2221 15.18032617 81751
VERONIKA                
1 58261U 23174F   24355.45578224  .00046844  00000+0  12751-2 0  9998
2 58261  97.4390  70.1645 0008304 303.1375  56.9072 15.37333825 62159
ROBUSTA-1E (ENSO)       
1 58470U 23185J   24355.53473686  .00032651  00000+0  91497-3 0  9993
2 58470  97.4012  61.5789 0009231 342.5479  17.5446 15.36500718 58617
SITRO-AIS 29            
1 59052U 24039B   24355.53927395  .00058573  00000+0  11091-2 0  9992
2 59052  97.4100 318.5145 0007145 273.2798  86.7635 15.48149718 45200
SITRO-AIS 30            
1 59053U 24039C   24355.50374507  .00058938  00000+0  11377-2 0  9993
2 59053  97.4102 318.4036 0007493 275.8925  84.1471 15.47589111 45188
SITRO-AIS 31            
1 59054U 24039D   24355.53134263  .00056313  00000+0  10709-2 0  9993
2 59054  97.4099 318.5197 0007233 275.4564  84.5861 15.48035359 45212
SITRO-AIS 33            
1 59055U 24039E   24355.50864093  .00060891  00000+0  11520-2 0  9990
2 59055  97.4104 318.5626 0006956 276.5550  83.4908 15.48165711 45200
SITRO-AIS 35            
1 59056U 24039F   24355.56659326  .00063278  00000+0  11924-2 0  9998
2 59056  97.4099 318.6322 0006751 276.5460  83.5021 15.48271757 45217
SITRO-AIS 32            
1 59057U 24039G   24355.53403946  .00056572  00000+0  10845-2 0  9991
2 59057  97.4105 318.5313 0007105 277.3506  82.6936 15.47802759 45204
SITRO-AIS 34            
1 59058U 24039H   24355.50814850  .00057538  00000+0  10893-2 0  9995
2 59058  97.4105 318.5650 0006930 276.2776  83.7685 15.48161381 45204
SITRO-AIS 36            
1 59059U 24039J   24355.48660595  .00060745  00000+0  11450-2 0  9992
2 59059  97.4102 318.5877 0006819 277.2094  82.8381 15.48274182 45200
SITRO-AIS 49            
1 59060U 24039K   24355.50648248  .00057194  00000+0  10931-2 0  9995
2 59060  97.4108 318.5657 0006921 277.0455  83.0008 15.47889466 45202
SITRO-AIS 50            
1 59061U 24039L   24355.51945634  .00060152  00000+0  11182-2 0  9993
2 59061  97.4105 318.6939 0006611 274.6375  85.4120 15.48677113 45211
SITRO-AIS 51            
1 59062U 24039M   24355.51633753  .00061554  00000+0  11394-2 0  9992
2 59062  97.4103 318.6952 0006474 275.9994  84.0519 15.48794551 45216
SITRO-AIS 52            
1 59063U 24039N   24355.56222124  .00061566  00000+0  11369-2 0  9999
2 59063  97.4100 318.7928 0006194 274.5071  85.5472 15.48864671 45224
SITRO-AIS 25            
1 59066U 24039R   24355.57966401  .00005343  00000+0  47412-3 0  9996
2 59066  95.3854 223.7729 0164324  60.5068 301.2431 14.86518229 43769
SITRO-AIS 26            
1 59067U 24039S   24355.58913719  .00005589  00000+0  49727-3 0  9995
2 59067  95.3854 223.7636 0164543  60.5783 301.1749 14.86387271 43766
SITRO-AIS 27            
1 59068U 24039T   24355.48498559  .00005500  00000+0  48662-3 0  9995
2 59068  95.3856 223.7583 0163911  60.5372 301.2090 14.86668365 43757
SITRO-AIS 28            
1 59071U 24039U   24355.54402113  .00004905  00000+0  43405-3 0  9995
2 59071  95.3858 223.8148 0163763  60.2896 301.4511 14.86709577 43766
GRBBETA                 
1 60237U 24128C   24354.64050292  .00007406  00000+0  60364-3 0  9999
2 60237  61.9945 317.8750 0032104  15.2741 344.9310 14.99882486 24385
OOV-CUBE (TUBSAT-30)    
1 60240U 24128F   24355.34445148  .00005103  00000+0  43754-3 0  9995
2 60240  61.9984 316.3473 0030365  11.1168 349.0585 14.98440914 24489
ROBUSTA-3A (MEDITERRAN*)
1 60243U 24128J   24355.29111849  .00012746  00000+0  10159-2 0  9993
2 60243  61.9916 315.9715 0030389   5.7954 354.3481 15.00307859 24487
